NORAD_CAT_ID,OBJECT_NAME,OBJECT_TYPE,EPOCH,MEAN_MOTION,ECCENTRICITY,INCLINATION,RA_OF_ASC_NODE,ARG_OF_PERICENTER,MEAN_ANOMALY,BSTAR,MEAN_MOTION_DOT,MEAN_MOTION_DDOT,TLE_LINE0,TLE_LINE1,TLE_LINE2,SEMIMAJOR_AXIS,PERIOD,APOGEE,PERIGEE,DECAYED
52484.0,STARLINK-3887,PAYLOAD,2022-05-13 14:00:01,15.80350752,0.0001597,53.2176,230.8581,32.329,310.5233,-0.005056,-0.00880963,0.0,0 STARLINK-3887,1 52484U 22049AK  22133.58334491 -.00880963  00000-0 -50560-2 0  9992,2 52484  53.2176 230.8581 0001597  32.3290 310.5233 15.80350752  1304,6707.585,91.119,330.521,328.379,0.0
52484.0,STARLINK-3887,PAYLOAD,2022-05-13 16:00:00,15.80113507,0.0001605,53.2166,230.4409,41.4228,55.8227,-0.0044214,-0.00771881,0.0,0 STARLINK-3887,1 52484U 22049AK  22133.66667824 -.00771881  00000-0 -44214-2 0  9997,2 52484  53.2166 230.4409 0001605  41.4228  55.8227 15.80113507  1318,6708.255999999999,91.133,331.1980000000001,329.045,0.0
52484.0,STARLINK-3887,PAYLOAD,2022-05-14 06:00:00,15.79089949,0.0001541,53.2174,227.5248,41.5989,134.7633,-0.0053205,-0.00875367,0.0,0 STARLINK-3887,1 52484U 22049AK  22134.25001157 -.00875367  00000-0 -53205-2 0  9998,2 52484  53.2174 227.5248 0001541  41.5989 134.7633 15.79089949  1407,6711.155,91.192,334.0540000000001,331.986,0.0
52484.0,STARLINK-3887,PAYLOAD,2022-05-14 14:00:01,15.7846198,0.0001681,53.2174,225.8638,35.11,236.8708,-0.0054997,-0.00878991,0.0,0 STARLINK-3887,1 52484U 22049AK  22134.58334491 -.00878991  00000-0 -54997-2 0  9999,2 52484  53.2174 225.8638 0001681  35.1100 236.8708 15.78461980  1304,6712.935,91.228,335.92800000000005,333.671,0.0
52484.0,STARLINK-3887,PAYLOAD,2022-05-14 22:00:00,15.77832412,0.0001379,53.2175,224.2011,36.2715,330.5735,-0.0056501,-0.00877663,0.0,0 STARLINK-3887,1 52484U 22049AK  22134.91667824 -.00877663  00000-0 -56501-2 0  9993,2 52484  53.2175 224.2011 0001379  36.2715 330.5735 15.77832412  1304,6714.72,91.264,337.511,335.659,0.0
52484.0,STARLINK-3887,PAYLOAD,2022-05-15 06:00:00,15.77200776,0.0001631,53.2177,222.54,34.318000000000005,66.6355,-0.0057778,-0.00872929,0.0,0 STARLINK-3887,1 52484U 22049AK  22135.25001157 -.00872929  00000-0 -57778-2 0  9999,2 52484  53.2177 222.5400 0001631  34.3180  66.6355 15.77200776  1560,6716.513000000001,91.301,339.473,337.282,0.0
52484.0,STARLINK-3887,PAYLOAD,2022-05-15 14:00:01,15.76572688,0.0001763,53.2176,220.8835,36.5345,157.8345,-0.0059616,-0.00875513,0.0,0 STARLINK-3887,1 52484U 22049AK  22135.58335648 -.00875513  00000-0 -59616-2 0  9995,2 52484  53.2176 220.8835 0001763  36.5345 157.8345 15.76572688  1302,6718.297,91.337,341.346,338.977,0.0
52484.0,STARLINK-3887,PAYLOAD,2022-05-15 22:00:00,15.75945438,0.0001547,53.2174,219.2252,35.9281,250.9703,-0.0061571,-0.00878902,0.0,0 STARLINK-3887,1 52484U 22049AK  22135.91667824 -.00878902  00000-0 -61571-2 0  9994,2 52484  53.2174 219.2252 0001547  35.9281 250.9703 15.75945438  1306,6720.079000000002,91.374,342.9840000000001,340.905,0.0
52484.0,STARLINK-3887,PAYLOAD,2022-05-16 06:00:02,15.75313674,0.0001554,53.2175,217.5689,32.1522,346.6519,-0.0062926,-0.00874022,0.0,0 STARLINK-3887,1 52484U 22049AK  22136.25002315 -.00874022  00000-0 -62926-2 0  9994,2 52484  53.2175 217.5689 0001554  32.1522 346.6519 15.75313674  1722,6721.876,91.41,344.785,342.696,0.0
52484.0,STARLINK-3887,PAYLOAD,2022-05-16 14:00:01,15.74684417,0.0002237,53.2175,215.9172,19.5245,90.2951,-0.0064683,-0.00874166,0.0,0 STARLINK-3887,1 52484U 22049AK  22136.58334491 -.00874166  00000-0 -64683-2 0  9994,2 52484  53.2175 215.9172 0002237  19.5245  90.2951 15.74684417  1302,6723.666,91.447,347.035,344.027,0.0
52484.0,STARLINK-3887,PAYLOAD,2022-05-16 22:00:00,15.74051269,0.0001541,53.2176,214.2632,41.9951,158.1527,-0.0065834999999999,-0.00866054,0.0,0 STARLINK-3887,1 52484U 22049AK  22136.91667824 -.00866054  00000-0 -65835-2 0  9997,2 52484  53.2176 214.2632 0001541  41.9951 158.1527 15.74051269  1302,6725.469,91.484,348.371,346.298,0.0
52484.0,STARLINK-3887,PAYLOAD,2022-05-17 06:00:00,15.73261043,0.0001547,53.2178,212.6119,46.368,243.3689,-0.00064433,-0.0009032,0.0,0 STARLINK-3887,1 52484U 22049AK  22137.25001157 -.00090320  00000-0 -64433-3 0  9995,2 52484  53.2178 212.6119 0001547  46.3680 243.3689 15.73261043  1870,6727.721,91.53,350.62699999999984,348.545,0.0
52484.0,STARLINK-3887,PAYLOAD,2022-05-17 14:00:01,15.73206387,0.0001821,53.2176,210.9643,31.9517,346.8105,-2.8479e-05,-4.617e-05,0.0,0 STARLINK-3887,1 52484U 22049AK  22137.58335648 -.00004617  00000-0 -28479-4 0  9991,2 52484  53.2176 210.9643 0001821  31.9517 346.8105 15.73206387  1305,6727.877,91.533,350.967,348.517,0.0
52484.0,STARLINK-3887,PAYLOAD,2022-05-17 20:00:01,15.73294444,0.0001703,53.2114,209.7214,32.517,323.0507,-0.00023676,-0.00033851,0.0,0 STARLINK-3887,1 52484U 22049AK  22137.83334491 -.00033851  00000-0 -23676-3 0  9999,2 52484  53.2114 209.7214 0001703  32.5170 323.0507 15.73294444  1975,6727.626,91.528,350.63699999999994,348.345,0.0
52484.0,STARLINK-3887,PAYLOAD,2022-05-17 22:00:01,15.73264095,0.0001648,53.2119,209.3083,34.8088,73.0911,0.00020954,0.0002897,0.0,0 STARLINK-3887,1 52484U 22049AK  22137.91668981  .00028970  00000-0  20954-3 0  9992,2 52484  53.2119 209.3083 0001648  34.8088  73.0911 15.73264095  1308,6727.712,91.529,350.686,348.469,0.0
52484.0,STARLINK-3887,PAYLOAD,2022-05-18 12:00:00,15.73215057,0.0001893,53.2136,206.4225,36.5199,137.0759,-0.0011138,-0.00154217,0.0,0 STARLINK-3887,1 52484U 22049AK  22138.50001157 -.00154217  00000-0 -11138-2 0  9993,2 52484  53.2136 206.4225 0001893  36.5199 137.0759 15.73215057  2077,6727.852,91.532,350.991,348.444,0.0
52484.0,STARLINK-3887,PAYLOAD,2022-05-18 14:00:01,15.73149844,0.0001881,53.2139,206.0105,34.4637,251.3757,-0.0004426,-0.00062151,0.0,0 STARLINK-3887,1 52484U 22049AK  22138.58334491 -.00062151  00000-0 -44260-3 0  9999,2 52484  53.2139 206.0105 0001881  34.4637 251.3757 15.73149844  1307,6728.038000000001,91.536,351.1690000000001,348.63800000000015,0.0
52484.0,STARLINK-3887,PAYLOAD,2022-05-18 20:00:01,15.73113268,0.0001746,53.2141,204.7722,28.5628,233.9215,0.00015248,0.00020754,0.0,0 STARLINK-3887,1 52484U 22049AK  22138.83334491  .00020754  00000-0  15248-3 0  9992,2 52484  53.2141 204.7722 0001746  28.5628 233.9215 15.73113268  2121,6728.142,91.538,351.182,348.833,0.0
52484.0,STARLINK-3887,PAYLOAD,2022-05-18 22:00:00,15.73124109,0.0001683,53.2145,204.3593,29.4376,345.2512,5.0858e-05,6.500000000000001e-05,0.0,0 STARLINK-3887,1 52484U 22049AK  22138.91667824  .00006500  00000-0  50858-4 0  9990,2 52484  53.2145 204.3593 0001683  29.4376 345.2512 15.73124109  1309,6728.111999999999,91.538,351.1090000000001,348.844,0.0
52484.0,STARLINK-3887,PAYLOAD,2022-05-19 06:00:00,15.72893837,0.0001952,53.217,202.7133,45.3258,58.1997,0.0035189,0.00518139,0.0,0 STARLINK-3887,1 52484U 22049AK  22139.25001157  .00518139  00000-0  35189-2 0  9993,2 52484  53.2170 202.7133 0001952  45.3258  58.1997 15.72893837  2199,6728.768,91.551,351.94699999999995,349.32,0.0
52484.0,STARLINK-3887,PAYLOAD,2022-05-19 14:00:01,15.73172286,0.0002039,53.2145,201.0619,31.3355,161.2983,0.00014677,0.00020003,0.0,0 STARLINK-3887,1 52484U 22049AK  22139.58335648  .00020003  00000-0  14677-3 0  9992,2 52484  53.2145 201.0619 0002039  31.3355 161.2983 15.73172286  1304,6727.974,91.535,351.211,348.467,0.0
52484.0,STARLINK-3887,PAYLOAD,2022-05-19 22:00:00,15.73190114,0.0001926,53.2147,199.4106,38.0306,243.4575,0.00046772,0.00065509,0.0,0 STARLINK-3887,1 52484U 22049AK  22139.91667824  .00065509  00000-0  46772-3 0  9994,2 52484  53.2147 199.4106 0001926  38.0306 243.4575 15.73190114  2290,6727.9230000000025,91.534,351.084,348.49300000000005,0.0
52484.0,STARLINK-3887,PAYLOAD,2022-05-20 14:00:01,15.73204888,0.0002123,53.216,196.1134,34.1896,65.212,-0.00040669,-0.00057328,0.0,0 STARLINK-3887,1 52484U 22049AK  22140.58334491 -.00057328  00000-0 -40669-3 0  9991,2 52484  53.2160 196.1134 0002123  34.1896  65.2120 15.73204888  2404,6727.880999999999,91.533,351.175,348.3180000000001,0.0
52484.0,STARLINK-3887,PAYLOAD,2022-05-20 22:00:00,15.7324694,0.0002201,53.2162,194.4618,42.437,145.9342,0.00042979,0.00060257,0.0,0 STARLINK-3887,1 52484U 22049AK  22140.91667824  .00060257  00000-0  42979-3 0  9996,2 52484  53.2162 194.4618 0002201  42.4370 145.9342 15.73246940  2452,6727.761,91.53,351.107,348.146,0.0
52484.0,STARLINK-3887,PAYLOAD,2022-05-21 06:00:00,15.73201514,0.0002289,53.2176,192.8172,47.9009,229.0743,5.5751e-05,7.211e-05,0.0,0 STARLINK-3887,1 52484U 22049AK  22141.25001157  .00007211  00000-0  55751-4 0  9999,2 52484  53.2176 192.8172 0002289  47.9009 229.0743 15.73201514  2502,6727.891,91.533,351.296,348.216,0.0
52484.0,STARLINK-3887,PAYLOAD,2022-05-21 14:00:01,15.73199138,0.0002059,53.2157,191.1649,22.9012,343.3331,0.00033407,0.00046524,0.0,0 STARLINK-3887,1 52484U 22049AK  22141.58335648  .00046524  00000-0  33407-3 0  9993,2 52484  53.2157 191.1649 0002059  22.9012 343.3331 15.73199138  2561,6727.898,91.533,351.148,348.37699999999984,0.0
52484.0,STARLINK-3887,PAYLOAD,2022-05-21 22:00:00,15.73201653,0.0001783,53.2157,189.5134,24.032,71.0953,0.00012175,0.00016501,0.0,0 STARLINK-3887,1 52484U 22049AK  22141.91667824  .00016501  00000-0  12175-3 0  9995,2 52484  53.2157 189.5134 0001783  24.0320  71.0953 15.73201653  1301,6727.89,91.533,350.955,348.556,0.0
52484.0,STARLINK-3887,PAYLOAD,2022-05-22 06:00:00,15.73215737,0.0001958,53.2161,187.8644,30.3685,153.6918,-0.00055899,-0.00078403,0.0,0 STARLINK-3887,1 52484U 22049AK  22142.25001157 -.00078403  00000-0 -55899-3 0  9995,2 52484  53.2161 187.8644 0001958  30.3685 153.6918 15.73215737  2667,6727.85,91.532,351.033,348.398,0.0
52484.0,STARLINK-3887,PAYLOAD,2022-05-22 14:00:01,15.73146832,0.0002194,53.2161,186.2166,28.071,244.8878,8.8671e-05,0.00011814,0.0,0 STARLINK-3887,1 52484U 22049AK  22142.58334491  .00011814  00000-0  88671-4 0  9997,2 52484  53.2161 186.2166 0002194  28.0710 244.8878 15.73146832  1302,6728.047,91.536,351.38800000000015,348.436,0.0
